{
  "type": "FeatureCollection",
  "features": [
    {
      "type": "Feature",
      "properties": {
        "id": 1,
        "nombre": "ALMACÉN Y BAR LAVALLE",
        "direccion": "Lavalle 1693",
        "barrio": "San Nicolás",
        "direccion_normalizada": "1693, Lavalle, San Nicolás, Buenos Aires, Comuna 1, Ciudad Autónoma de Buenos Aires, C1048AAM, Argentina",
        "fuente": "Nominatim"
      },
      "geometry": {
        "type": "Point",
        "coordinates": [
          -58.390952,
          -34.602997
        ]
      }
    },
    {
      "type": "Feature",
      "properties": {
        "id": 2,
        "nombre": "BARBARO BAR",
        "direccion": "Tres Sargentos 415",
        "barrio": "Retiro",
        "direccion_normalizada": "TRES SARGENTOS 415, CABA",
        "fuente": "USIG"
      },
      "geometry": {
        "type": "Point",
        "coordinates": [
          -58.373198,
          -34.597887
        ]
      }
    },
    {
      "type": "Feature",
      "properties": {
        "id": 3,
        "nombre": "BAR BIDOU",
        "direccion": "Av. Roque Sáenz Peña 858",
        "barrio": "San Nicolás",
        "direccion_normalizada": "SAENZ PEÑA, ROQUE, PRES. DIAGONAL NORTE AV. 858, CABA",
        "fuente": "USIG"
      },
      "geometry": {
        "type": "Point",
        "coordinates": [
          -58.378784,
          -34.605223
        ]
      }
    },
    {
      "type": "Feature",
      "properties": {
        "id": 4,
        "nombre": "BAR BOCA A BOCA",
        "direccion": "Av. Benito Pérez Galdós 207",
        "barrio": "La Boca",
        "direccion_normalizada": "PEREZ GALDOS, BENITO AV. 207, CABA",
        "fuente": "USIG"
      },
      "geometry": {
        "type": "Point",
        "coordinates": [
          -58.359465,
          -34.630299
        ]
      }
    },
    {
      "type": "Feature",
      "properties": {
        "id": 5,
        "nombre": "BAR BRITÁNICO",
        "direccion": "Brasil 399",
        "barrio": "San Telmo",
        "direccion_normalizada": "BRASIL AV. 399, CABA",
        "fuente": "USIG"
      },
      "geometry": {
        "type": "Point",
        "coordinates": [
          -58.370839,
          -34.625306
        ]
      }
    },
    {
      "type": "Feature",
      "properties": {
        "id": 6,
        "nombre": "BAR CONDE",
        "direccion": "Av. Federico Lacroze 3193",
        "barrio": "Colegiales",
        "direccion_normalizada": "LACROZE, FEDERICO AV. 3193, CABA",
        "fuente": "USIG"
      },
      "geometry": {
        "type": "Point",
        "coordinates": [
          -58.449427,
          -34.577801
        ]
      }
    },
    {
      "type": "Feature",
      "properties": {
        "id": 7,
        "nombre": "BAR DE CAO",
        "direccion": "Av. Independencia 2400",
        "barrio": "San Cristóbal",
        "direccion_normalizada": "INDEPENDENCIA AV. 2400, CABA",
        "fuente": "USIG"
      },
      "geometry": {
        "type": "Point",
        "coordinates": [
          -58.399898,
          -34.618679
        ]
      }
    },
    {
      "type": "Feature",
      "properties": {
        "id": 8,
        "nombre": "BAR DEL ALVEAR PALACE HOTEL",
        "direccion": "Av. Alvear 1891",
        "barrio": "Recoleta",
        "direccion_normalizada": "ALVEAR AV. 1891, CABA",
        "fuente": "GCBA"
      },
      "geometry": {
        "type": "Point",
        "coordinates": [
          -58.388996,
          -34.587677
        ]
      }
    },
    {
      "type": "Feature",
      "properties": {
        "id": 9,
        "nombre": "BAR EL COLONIAL",
        "direccion": "Av. Belgrano 599",
        "barrio": "Montserrat",
        "direccion_normalizada": "BELGRANO AV. 599, CABA",
        "fuente": "GCBA"
      },
      "geometry": {
        "type": "Point",
        "coordinates": [
          -58.374516,
          -34.612552
        ]
      }
    },
    {
      "type": "Feature",
      "properties": {
        "id": 10,
        "nombre": "BAR DEL GLORIAS",
        "direccion": "Andalgalá 1982",
        "barrio": "Mataderos",
        "direccion_normalizada": "ANDALGALA 1982, CABA",
        "fuente": "USIG"
      },
      "geometry": {
        "type": "Point",
        "coordinates": [
          -58.510313,
          -34.659301
        ]
      }
    },
    {
      "type": "Feature",
      "properties": {
        "id": 11,
        "nombre": "BAR IBERIA",
        "direccion": "Av. de Mayo 1196",
        "barrio": "Montserrat",
        "direccion_normalizada": "DE MAYO AV. 1196, CABA",
        "fuente": "GCBA"
      },
      "geometry": {
        "type": "Point",
        "coordinates": [
          -58.383303,
          -34.609258
        ]
      }
    },
    {
      "type": "Feature",
      "properties": {
        "id": 12,
        "nombre": "BAR 9 DE JULIO",
        "direccion": "Larrazábal 1276",
        "barrio": "Mataderos",
        "direccion_normalizada": "LARRAZABAL AV. 1276, CABA",
        "fuente": "USIG"
      },
      "geometry": {
        "type": "Point",
        "coordinates": [
          -58.502491,
          -34.650998
        ]
      }
    },
    {
      "type": "Feature",
      "properties": {
        "id": 13,
        "nombre": "BAR OLIMPO",
        "direccion": "Irigoyen 1491",
        "barrio": "Monte Castro",
        "direccion_normalizada": "IRIGOYEN 1491, CABA",
        "fuente": "USIG"
      },
      "geometry": {
        "type": "Point",
        "coordinates": [
          -58.518306,
          -34.626898
        ]
      }
    },
    {
      "type": "Feature",
      "properties": {
        "id": 14,
        "nombre": "BAR OVIEDO",
        "direccion": "Av. Lisandro de la Torre 2407",
        "barrio": "Mataderos",
        "direccion_normalizada": "DE LA TORRE, LISANDRO AV. 2407, CABA",
        "fuente": "USIG"
      },
      "geometry": {
        "type": "Point",
        "coordinates": [
          -58.500062,
          -34.662711
        ]
      }
    },
    {
      "type": "Feature",
      "properties": {
        "id": 15,
        "nombre": "BAR PORTUARIO",
        "direccion": "Pinzón 102",
        "barrio": "La Boca",
        "direccion_normalizada": "PINZON 102, CABA",
        "fuente": "USIG"
      },
      "geometry": {
        "type": "Point",
        "coordinates": [
          -58.356024,
          -34.632174
        ]
      }
    },
    {
      "type": "Feature",
      "properties": {
        "id": 16,
        "nombre": "BAR PLAZA DORREGO",
        "direccion": "Defensa 1098",
        "barrio": "San Telmo",
        "direccion_normalizada": "DEFENSA 1098, CABA",
        "fuente": "USIG"
      },
      "geometry": {
        "type": "Point",
        "coordinates": [
          -58.371399,
          -34.620552
        ]
      }
    },
    {
      "type": "Feature",
      "properties": {
        "id": 17,
        "nombre": "BAR QUINTINO",
        "direccion": "Carlos Calvo 4002",
        "barrio": "Boedo",
        "direccion_normalizada": "CALVO, CARLOS AV. 4002, CABA",
        "fuente": "USIG"
      },
      "geometry": {
        "type": "Point",
        "coordinates": [
          -58.421977,
          -34.624844
        ]
      }
    },
    {
      "type": "Feature",
      "properties": {
        "id": 18,
        "nombre": "BAR SEDDON",
        "direccion": "Defensa 695",
        "barrio": "Montserrat",
        "direccion_normalizada": "DEFENSA 695, CABA",
        "fuente": "USIG"
      },
      "geometry": {
        "type": "Point",
        "coordinates": [
          -58.371763,
          -34.615917
        ]
      }
    },
    {
      "type": "Feature",
      "properties": {
        "id": 19,
        "nombre": "BAR SUR",
        "direccion": "Estados Unidos 299",
        "barrio": "San Telmo",
        "direccion_normalizada": "ESTADOS UNIDOS 299, CABA",
        "fuente": "USIG"
      },
      "geometry": {
        "type": "Point",
        "coordinates": [
          -58.37003,
          -34.618388
        ]
      }
    },
    {
      "type": "Feature",
      "properties": {
        "id": 20,
        "nombre": "BAR VIA 71",
        "direccion": "Viamonte 1771",
        "barrio": "San Nicolás",
        "direccion_normalizada": "VIAMONTE 1771, CABA",
        "fuente": "USIG"
      },
      "geometry": {
        "type": "Point",
        "coordinates": [
          -58.392349,
          -34.600753
        ]
      }
    },
    {
      "type": "Feature",
      "properties": {
        "id": 21,
        "nombre": "BOSTON CITY",
        "direccion": "Florida 165 local 3",
        "barrio": "San Nicolás",
        "direccion_normalizada": "FLORIDA 165, CABA",
        "fuente": "USIG"
      },
      "geometry": {
        "type": "Point",
        "coordinates": [
          -58.375033,
          -34.606125
        ]
      }
    },
    {
      "type": "Feature",
      "properties": {
        "id": 22,
        "nombre": "CABILDO DE BUENOS AIRES",
        "direccion": "Perú 86",
        "barrio": "Montserrat",
        "direccion_normalizada": "PERU 86, CABA",
        "fuente": "USIG"
      },
      "geometry": {
        "type": "Point",
        "coordinates": [
          -58.374846,
          -34.609028
        ]
      }
    },
    {
      "type": "Feature",
      "properties": {
        "id": 23,
        "nombre": "CAFÉ CORTÁZAR",
        "direccion": "José Antonio Cabrera 3797",
        "barrio": "Palermo",
        "direccion_normalizada": "CABRERA, JOSE A. 3797, CABA",
        "fuente": "USIG"
      },
      "geometry": {
        "type": "Point",
        "coordinates": [
          -58.419818,
          -34.596464
        ]
      }
    },
    {
      "type": "Feature",
      "properties": {
        "id": 24,
        "nombre": "CAFÉ DE GARCÍA",
        "direccion": "Sanabria 3302",
        "barrio": "Villa Devoto",
        "direccion_normalizada": "SANABRIA 3302, CABA",
        "fuente": "USIG"
      },
      "geometry": {
        "type": "Point",
        "coordinates": [
          -58.51059,
          -34.606356
        ]
      }
    },
    {
      "type": "Feature",
      "properties": {
        "id": 25,
        "nombre": "CAFÉ DE LA U",
        "direccion": "Av. Triunvirato 4801",
        "barrio": "Villa Urquiza",
        "direccion_normalizada": "TRIUNVIRATO AV. 4801, CABA",
        "fuente": "USIG"
      },
      "geometry": {
        "type": "Point",
        "coordinates": [
          -58.487403,
          -34.573373
        ]
      }
    },
    {
      "type": "Feature",
      "properties": {
        "id": 26,
        "nombre": "CAFÉ DE LOS ANGELITOS",
        "direccion": "Av. Rivadavia 2100",
        "barrio": "Balvanera",
        "direccion_normalizada": "RIVADAVIA AV. 2100, CABA",
        "fuente": "GCBA"
      },
      "geometry": {
        "type": "Point",
        "coordinates": [
          -58.396007,
          -34.609527
        ]
      }
    },
    {
      "type": "Feature",
      "properties": {
        "id": 27,
        "nombre": "CAFÉ MARGOT",
        "direccion": "Av. Boedo 857",
        "barrio": "Boedo",
        "direccion_normalizada": "BOEDO AV. 857, CABA",
        "fuente": "USIG"
      },
      "geometry": {
        "type": "Point",
        "coordinates": [
          -58.416375,
          -34.623266
        ]
      }
    },
    {
      "type": "Feature",
      "properties": {
        "id": 28,
        "nombre": "CAFÉ RIVAS",
        "direccion": "Estados Unidos 302",
        "barrio": "San Telmo",
        "direccion_normalizada": "ESTADOS UNIDOS 302, CABA",
        "fuente": "USIG"
      },
      "geometry": {
        "type": "Point",
        "coordinates": [
          -58.370277,
          -34.618461
        ]
      }
    },
    {
      "type": "Feature",
      "properties": {
        "id": 29,
        "nombre": "CAFÉ ROMA",
        "direccion": "Olavarría 409",
        "barrio": "La Boca",
        "direccion_normalizada": "OLAVARRIA 409, CABA",
        "fuente": "USIG"
      },
      "geometry": {
        "type": "Point",
        "coordinates": [
          -58.358759,
          -34.636242
        ]
      }
    },
    {
      "type": "Feature",
      "properties": {
        "id": 30,
        "nombre": "CAFÉ SAN BERNARDO",
        "direccion": "Av. Corrientes 5436",
        "barrio": "Villa Crespo",
        "direccion_normalizada": "CORRIENTES AV. 5436, CABA",
        "fuente": "USIG"
      },
      "geometry": {
        "type": "Point",
        "coordinates": [
          -58.441098,
          -34.597863
        ]
      }
    },
    {
      "type": "Feature",
      "properties": {
        "id": 31,
        "nombre": "CAFÉ TABAC",
        "direccion": "Av. del Libertador 2300",
        "barrio": "Recoleta",
        "direccion_normalizada": "DEL LIBERTADOR AV. 2300, CABA",
        "fuente": "USIG"
      },
      "geometry": {
        "type": "Point",
        "coordinates": [
          -58.404473,
          -34.580905
        ]
      }
    },
    {
      "type": "Feature",
      "properties": {
        "id": 32,
        "nombre": "CAFÉ THIBON",
        "direccion": "Montevideo 723",
        "barrio": "San Nicolás",
        "direccion_normalizada": "MONTEVIDEO 723, CABA",
        "fuente": "USIG"
      },
      "geometry": {
        "type": "Point",
        "coordinates": [
          -58.389571,
          -34.600414
        ]
      }
    },
    {
      "type": "Feature",
      "properties": {
        "id": 33,
        "nombre": "CAFÉ TORTONI",
        "direccion": "Av. de Mayo 825",
        "barrio": "Montserrat",
        "direccion_normalizada": "DE MAYO AV. 825, CABA",
        "fuente": "GCBA"
      },
      "geometry": {
        "type": "Point",
        "coordinates": [
          -58.37813,
          -34.608824
        ]
      }
    },
    {
      "type": "Feature",
      "properties": {
        "id": 34,
        "nombre": "CELTA BAR",
        "direccion": "Sarmiento 1702",
        "barrio": "San Nicolás",
        "direccion_normalizada": "SARMIENTO 1702, CABA",
        "fuente": "GCBA"
      },
      "geometry": {
        "type": "Point",
        "coordinates": [
          -58.390932,
          -34.605579
        ]
      }
    },
    {
      "type": "Feature",
      "properties": {
        "id": 35,
        "nombre": "CLARIDGE'S BAR",
        "direccion": "Tucumán 535",
        "barrio": "San Nicolás",
        "direccion_normalizada": "TUCUMAN 535, CABA",
        "fuente": "GCBA"
      },
      "geometry": {
        "type": "Point",
        "coordinates": [
          -58.374517,
          -34.600965
        ]
      }
    },
    {
      "type": "Feature",
      "properties": {
        "id": 36,
        "nombre": "CLÁSICA Y MODERNA",
        "direccion": "Av. Callao 892",
        "barrio": "San Nicolás",
        "direccion_normalizada": "CALLAO AV. 892, CABA",
        "fuente": "USIG"
      },
      "geometry": {
        "type": "Point",
        "coordinates": [
          -58.393113,
          -34.599001
        ]
      }
    },
    {
      "type": "Feature",
      "properties": {
        "id": 37,
        "nombre": "CONFITERÍA LA IDEAL",
        "direccion": "Suipacha 384",
        "barrio": "San Nicolás",
        "direccion_normalizada": "SUIPACHA 384, CABA",
        "fuente": "GCBA"
      },
      "geometry": {
        "type": "Point",
        "coordinates": [
          -58.37949,
          -34.603924
        ]
      }
    },
    {
      "type": "Feature",
      "properties": {
        "id": 38,
        "nombre": "CONFITERÍA EL GRECO",
        "direccion": "Av. Rivadavia 5353",
        "barrio": "Caballito",
        "direccion_normalizada": "RIVADAVIA AV. 5353, CABA",
        "fuente": "USIG"
      },
      "geometry": {
        "type": "Point",
        "coordinates": [
          -58.440853,
          -34.620162
        ]
      }
    },
    {
      "type": "Feature",
      "properties": {
        "id": 39,
        "nombre": "CONFITERÍA SAINT MORITZ",
        "direccion": "Esmeralda 894",
        "barrio": "Retiro",
        "direccion_normalizada": "ESMERALDA 894, CABA",
        "fuente": "USIG"
      },
      "geometry": {
        "type": "Point",
        "coordinates": [
          -58.3784,
          -34.597786
        ]
      }
    },
    {
      "type": "Feature",
      "properties": {
        "id": 40,
        "nombre": "DON JUAN BAR",
        "direccion": "Camarones 2702",
        "barrio": "Villa Santa Rita",
        "direccion_normalizada": "CAMARONES 2702, CABA",
        "fuente": "USIG"
      },
      "geometry": {
        "type": "Point",
        "coordinates": [
          -58.478216,
          -34.611192
        ]
      }
    },
    {
      "type": "Feature",
      "properties": {
        "id": 41,
        "nombre": "EL BANDERÍN",
        "direccion": "Guardia Vieja 3601",
        "barrio": "Almagro",
        "direccion_normalizada": "GUARDIA VIEJA 3601, CABA",
        "fuente": "USIG"
      },
      "geometry": {
        "type": "Point",
        "coordinates": [
          -58.415489,
          -34.601649
        ]
      }
    },
    {
      "type": "Feature",
      "properties": {
        "id": 42,
        "nombre": "EL BOLICHE DE ROBERTO",
        "direccion": "Bulnes 331",
        "barrio": "Almagro",
        "direccion_normalizada": "BULNES 331, CABA",
        "fuente": "USIG"
      },
      "geometry": {
        "type": "Point",
        "coordinates": [
          -58.418597,
          -34.607009
        ]
      }
    },
    {
      "type": "Feature",
      "properties": {
        "id": 43,
        "nombre": "EL BUZÓN",
        "direccion": "Esquiú 1393",
        "barrio": "Nueva Pompeya",
        "direccion_normalizada": "ESQUIU 1393, CABA",
        "fuente": "USIG"
      },
      "geometry": {
        "type": "Point",
        "coordinates": [
          -58.423403,
          -34.65116
        ]
      }
    },
    {
      "type": "Feature",
      "properties": {
        "id": 44,
        "nombre": "EL COLECCIONISTA",
        "direccion": "Av. Rivadavia 4929",
        "barrio": "Caballito",
        "direccion_normalizada": "RIVADAVIA AV. 4929, CABA",
        "fuente": "USIG"
      },
      "geometry": {
        "type": "Point",
        "coordinates": [
          -58.434687,
          -34.617422
        ]
      }
    },
    {
      "type": "Feature",
      "properties": {
        "id": 45,
        "nombre": "EL ESTAÑO 1880",
        "direccion": "Aristóbulo del Valle 1100",
        "barrio": "La Boca",
        "direccion_normalizada": "VALLE, ARISTOBULO DEL 1100, CABA",
        "fuente": "USIG"
      },
      "geometry": {
        "type": "Point",
        "coordinates": [
          -58.36821,
          -34.635408
        ]
      }
    },
    {
      "type": "Feature",
      "properties": {
        "id": 46,
        "nombre": "EL FARO",
        "direccion": "Av. de los Constituyentes 4099",
        "barrio": "Parque Chas",
        "direccion_normalizada": "DE LOS CONSTITUYENTES AV. 4099, CABA",
        "fuente": "USIG"
      },
      "geometry": {
        "type": "Point",
        "coordinates": [
          -58.488592,
          -34.584925
        ]
      }
    },
    {
      "type": "Feature",
      "properties": {
        "id": 47,
        "nombre": "EL FEDERAL",
        "direccion": "Carlos Calvo 595",
        "barrio": "San Telmo",
        "direccion_normalizada": "CALVO, CARLOS 595, CABA",
        "fuente": "USIG"
      },
      "geometry": {
        "type": "Point",
        "coordinates": [
          -58.374145,
          -34.619619
        ]
      }
    },
    {
      "type": "Feature",
      "properties": {
        "id": 48,
        "nombre": "EL GATO NEGRO",
        "direccion": "Av. Corrientes 1669",
        "barrio": "San Nicolás",
        "direccion_normalizada": "CORRIENTES AV. 1669, CABA",
        "fuente": "GCBA"
      },
      "geometry": {
        "type": "Point",
        "coordinates": [
          -58.390307,
          -34.604209
        ]
      }
    },
    {
      "type": "Feature",
      "properties": {
        "id": 49,
        "nombre": "EL HIPOPÓTAMO",
        "direccion": "Brasil 401",
        "barrio": "San Telmo",
        "direccion_normalizada": "BRASIL 401, CABA",
        "fuente": "GCBA"
      },
      "geometry": {
        "type": "Point",
        "coordinates": [
          -58.371288,
          -34.625331
        ]
      }
    },
    {
      "type": "Feature",
      "properties": {
        "id": 50,
        "nombre": "EL PROGRESO",
        "direccion": "Av. Montes de Oca 1700",
        "barrio": "Barracas",
        "direccion_normalizada": "MONTES DE OCA, MANUEL AV. 1700, CABA",
        "fuente": "USIG"
      },
      "geometry": {
        "type": "Point",
        "coordinates": [
          -58.372916,
          -34.646536
        ]
      }
    },
    {
      "type": "Feature",
      "properties": {
        "id": 51,
        "nombre": "EL QUERANDÍ",
        "direccion": "Perú 302",
        "barrio": "Montserrat",
        "direccion_normalizada": "PERU 302, CABA",
        "fuente": "GCBA"
      },
      "geometry": {
        "type": "Point",
        "coordinates": [
          -58.374749,
          -34.611647
        ]
      }
    },
    {
      "type": "Feature",
      "properties": {
        "id": 52,
        "nombre": "EL SÍMBOLO",
        "direccion": "Av. Corrientes 3787",
        "barrio": "Almagro",
        "direccion_normalizada": "CORRIENTES AV. 3787, CABA",
        "fuente": "USIG"
      },
      "geometry": {
        "type": "Point",
        "coordinates": [
          -58.417844,
          -34.603404
        ]
      }
    },
    {
      "type": "Feature",
      "properties": {
        "id": 53,
        "nombre": "EL TOKIO",
        "direccion": "Av. Álvarez Jonte 3550",
        "barrio": "Villa Santa Rita",
        "direccion_normalizada": "ALVAREZ JONTE AV. 3550, CABA",
        "fuente": "USIG"
      },
      "geometry": {
        "type": "Point",
        "coordinates": [
          -58.491572,
          -34.612407
        ]
      }
    },
    {
      "type": "Feature",
      "properties": {
        "id": 54,
        "nombre": "EL VIEJO BUZÓN",
        "direccion": "Neuquén 1100",
        "barrio": "Caballito",
        "direccion_normalizada": "NEUQUEN 1100, CABA",
        "fuente": "USIG"
      },
      "geometry": {
        "type": "Point",
        "coordinates": [
          -58.448852,
          -34.615898
        ]
      }
    },
    {
      "type": "Feature",
      "properties": {
        "id": 55,
        "nombre": "ESQUINA HOMERO MANZI",
        "direccion": "Av. San Juan 3601",
        "barrio": "Boedo",
        "direccion_normalizada": "SAN JUAN AV. 3601, CABA",
        "fuente": "USIG"
      },
      "geometry": {
        "type": "Point",
        "coordinates": [
          -58.416337,
          -34.625385
        ]
      }
    },
    {
      "type": "Feature",
      "properties": {
        "id": 56,
        "nombre": "FLORIDA GARDEN",
        "direccion": "Florida 899",
        "barrio": "Retiro",
        "direccion_normalizada": "FLORIDA 899, CABA",
        "fuente": "USIG"
      },
      "geometry": {
        "type": "Point",
        "coordinates": [
          -58.375352,
          -34.597613
        ]
      }
    },
    {
      "type": "Feature",
      "properties": {
        "id": 57,
        "nombre": "HOTEL SAVOY / BAR IMPERIO",
        "direccion": "Av. Callao 181",
        "barrio": "San Nicolás",
        "direccion_normalizada": "CALLAO AV. 181, CABA",
        "fuente": "USIG"
      },
      "geometry": {
        "type": "Point",
        "coordinates": [
          -58.392003,
          -34.607022
        ]
      }
    },
    {
      "type": "Feature",
      "properties": {
        "id": 58,
        "nombre": "JOSEPHINA'S CAFÉ",
        "direccion": "Guido 1532",
        "barrio": "Recoleta",
        "direccion_normalizada": "GUIDO 1532, CABA",
        "fuente": "USIG"
      },
      "geometry": {
        "type": "Point",
        "coordinates": [
          -58.38697,
          -34.592512
        ]
      }
    },
    {
      "type": "Feature",
      "properties": {
        "id": 59,
        "nombre": "LA ACADEMIA",
        "direccion": "Montevideo 341",
        "barrio": "San Nicolás",
        "direccion_normalizada": "CALLAO AV. 368, CABA",
        "fuente": "GCBA"
      },
      "geometry": {
        "type": "Point",
        "coordinates": [
          -58.392357,
          -34.604902
        ]
      }
    },
    {
      "type": "Feature",
      "properties": {
        "id": 60,
        "nombre": "LA BIELA",
        "direccion": "Av. Pte. M. Quintana 600",
        "barrio": "Recoleta",
        "direccion_normalizada": "QUINTANA, MANUEL, PRES. AV. 600, CABA",
        "fuente": "USIG"
      },
      "geometry": {
        "type": "Point",
        "coordinates": [
          -58.390761,
          -34.587834
        ]
      }
    },
    {
      "type": "Feature",
      "properties": {
        "id": 61,
        "nombre": "LA BUENA MEDIDA",
        "direccion": "Suárez 101",
        "barrio": "La Boca",
        "direccion_normalizada": "SUAREZ 101, CABA",
        "fuente": "USIG"
      },
      "geometry": {
        "type": "Point",
        "coordinates": [
          -58.355061,
          -34.633746
        ]
      }
    },
    {
      "type": "Feature",
      "properties": {
        "id": 62,
        "nombre": "LA ESCUELA",
        "direccion": "Manuela Pedraza 2803",
        "barrio": "Núñez",
        "direccion_normalizada": "PEDRAZA, MANUELA 2803, CABA",
        "fuente": "USIG"
      },
      "geometry": {
        "type": "Point",
        "coordinates": [
          -58.469955,
          -34.553649
        ]
      }
    },
    {
      "type": "Feature",
      "properties": {
        "id": 63,
        "nombre": "LA FARMACIA",
        "direccion": "Av. Directorio 2400",
        "barrio": "Flores",
        "direccion_normalizada": "DIRECTORIO AV. 2400, CABA",
        "fuente": "USIG"
      },
      "geometry": {
        "type": "Point",
        "coordinates": [
          -58.460605,
          -34.633541
        ]
      }
    },
    {
      "type": "Feature",
      "properties": {
        "id": 64,
        "nombre": "LA FLOR DE BARRACAS",
        "direccion": "Suárez 2095",
        "barrio": "Barracas",
        "direccion_normalizada": "SUAREZ AV. 2095, CABA",
        "fuente": "USIG"
      },
      "geometry": {
        "type": "Point",
        "coordinates": [
          -58.379497,
          -34.641822
        ]
      }
    },
    {
      "type": "Feature",
      "properties": {
        "id": 65,
        "nombre": "LA GIRALDA",
        "direccion": "Av. Corrientes 1453",
        "barrio": "San Nicolás",
        "direccion_normalizada": "CORRIENTES AV. 1453, CABA",
        "fuente": "GCBA"
      },
      "geometry": {
        "type": "Point",
        "coordinates": [
          -58.387286,
          -34.604052
        ]
      }
    },
    {
      "type": "Feature",
      "properties": {
        "id": 66,
        "nombre": "LA ÓPERA",
        "direccion": "Av. Corrientes 1799",
        "barrio": "San Nicolás",
        "direccion_normalizada": "CORRIENTES AV. 1799, CABA",
        "fuente": "USIG"
      },
      "geometry": {
        "type": "Point",
        "coordinates": [
          -58.392047,
          -34.604335
        ]
      }
    },
    {
      "type": "Feature",
      "properties": {
        "id": 67,
        "nombre": "LA ORQUÍDEA",
        "direccion": "Av. Corrientes 4101",
        "barrio": "Almagro",
        "direccion_normalizada": "CORRIENTES AV. 4101, CABA",
        "fuente": "USIG"
      },
      "geometry": {
        "type": "Point",
        "coordinates": [
          -58.42267,
          -34.602917
        ]
      }
    },
    {
      "type": "Feature",
      "properties": {
        "id": 68,
        "nombre": "LA PERLA",
        "direccion": "Av. Don Pedro de Mendoza 1899",
        "barrio": "La Boca",
        "direccion_normalizada": "DON PEDRO DE MENDOZA AV. 1899, CABA",
        "fuente": "USIG"
      },
      "geometry": {
        "type": "Point",
        "coordinates": [
          -58.361731,
          -34.639338
        ]
      }
    },
    {
      "type": "Feature",
      "properties": {
        "id": 69,
        "nombre": "LA POESÍA",
        "direccion": "Chile 502",
        "barrio": "San Telmo",
        "direccion_normalizada": "CHILE 502, CABA",
        "fuente": "GCBA"
      },
      "geometry": {
        "type": "Point",
        "coordinates": [
          -58.373267,
          -34.616062
        ]
      }
    },
    {
      "type": "Feature",
      "properties": {
        "id": 70,
        "nombre": "LA PUERTO RICO",
        "direccion": "Alsina 420",
        "barrio": "Montserrat",
        "direccion_normalizada": "ALSINA, ADOLFO 420, CABA",
        "fuente": "USIG"
      },
      "geometry": {
        "type": "Point",
        "coordinates": [
          -58.372381,
          -34.610196
        ]
      }
    },
    {
      "type": "Feature",
      "properties": {
        "id": 71,
        "nombre": "LAS VIOLETAS",
        "direccion": "Av. Rivadavia 3899",
        "barrio": "Almagro",
        "direccion_normalizada": "RIVADAVIA AV. 3899, CABA",
        "fuente": "USIG"
      },
      "geometry": {
        "type": "Point",
        "coordinates": [
          -58.420777,
          -34.611314
        ]
      }
    },
    {
      "type": "Feature",
      "properties": {
        "id": 72,
        "nombre": "LE CARAVELLE",
        "direccion": "Lavalle 726",
        "barrio": "San Nicolás",
        "direccion_normalizada": "LAVALLE 726, CABA",
        "fuente": "USIG"
      },
      "geometry": {
        "type": "Point",
        "coordinates": [
          -58.377159,
          -34.602372
        ]
      }
    },
    {
      "type": "Feature",
      "properties": {
        "id": 73,
        "nombre": "LONDON CITY",
        "direccion": "Av. de Mayo 599",
        "barrio": "Montserrat",
        "direccion_normalizada": "DE MAYO AV. 599, CABA",
        "fuente": "GCBA"
      },
      "geometry": {
        "type": "Point",
        "coordinates": [
          -58.37474,
          -34.608508
        ]
      }
    },
    {
      "type": "Feature",
      "properties": {
        "id": 74,
        "nombre": "LOS 36 BILLARES",
        "direccion": "Av. de Mayo 1265/71",
        "barrio": "Montserrat",
        "direccion_normalizada": "DE MAYO AV. 1265, CABA",
        "fuente": "GCBA"
      },
      "geometry": {
        "type": "Point",
        "coordinates": [
          -58.384301,
          -34.60917
        ]
      }
    },
    {
      "type": "Feature",
      "properties": {
        "id": 75,
        "nombre": "LOS GALGOS",
        "direccion": "Av. Callao 501",
        "barrio": "San Nicolás",
        "direccion_normalizada": "CALLAO AV. 501, CABA",
        "fuente": "USIG"
      },
      "geometry": {
        "type": "Point",
        "coordinates": [
          -58.392326,
          -34.602955
        ]
      }
    },
    {
      "type": "Feature",
      "properties": {
        "id": 76,
        "nombre": "LOS LAURELES",
        "direccion": "Av. Iriarte 2290",
        "barrio": "Barracas",
        "direccion_normalizada": "IRIARTE, GRAL. AV. 2290, CABA",
        "fuente": "USIG"
      },
      "geometry": {
        "type": "Point",
        "coordinates": [
          -58.37943,
          -34.64945
        ]
      }
    },
    {
      "type": "Feature",
      "properties": {
        "id": 77,
        "nombre": "MAR AZUL",
        "direccion": "Tucumán 1700",
        "barrio": "San Nicolás",
        "direccion_normalizada": "TUCUMAN 1700, CABA",
        "fuente": "USIG"
      },
      "geometry": {
        "type": "Point",
        "coordinates": [
          -58.391132,
          -34.601939
        ]
      }
    },
    {
      "type": "Feature",
      "properties": {
        "id": 78,
        "nombre": "MIRAMAR",
        "direccion": "Sarandí 1190",
        "barrio": "San Cristóbal",
        "direccion_normalizada": "SARANDI 1190, CABA",
        "fuente": "USIG"
      },
      "geometry": {
        "type": "Point",
        "coordinates": [
          -58.393748,
          -34.622663
        ]
      }
    },
    {
      "type": "Feature",
      "properties": {
        "id": 79,
        "nombre": "MONTECARLO BAR Y DESPENSA",
        "direccion": "Paraguay 5491",
        "barrio": "Palermo",
        "direccion_normalizada": "PARAGUAY 5491, CABA",
        "fuente": "USIG"
      },
      "geometry": {
        "type": "Point",
        "coordinates": [
          -58.43385,
          -34.577099
        ]
      }
    },
    {
      "type": "Feature",
      "properties": {
        "id": 80,
        "nombre": "MUSEO FOTOGRÁFICO SIMIK",
        "direccion": "Av. Federico Lacroze 3901",
        "barrio": "Chacarita",
        "direccion_normalizada": "LACROZE, FEDERICO AV. 3901, CABA",
        "fuente": "USIG"
      },
      "geometry": {
        "type": "Point",
        "coordinates": [
          -58.453574,
          -34.584401
        ]
      }
    },
    {
      "type": "Feature",
      "properties": {
        "id": 81,
        "nombre": "OCHO ESQUINAS",
        "direccion": "Av. Forest 1186",
        "barrio": "Chacarita",
        "direccion_normalizada": "FOREST AV. 1186, CABA",
        "fuente": "USIG"
      },
      "geometry": {
        "type": "Point",
        "coordinates": [
          -58.460138,
          -34.578517
        ]
      }
    },
    {
      "type": "Feature",
      "properties": {
        "id": 82,
        "nombre": "PAULIN",
        "direccion": "Sarmiento 635",
        "barrio": "San Nicolás",
        "direccion_normalizada": "SARMIENTO 635, CABA",
        "fuente": "USIG"
      },
      "geometry": {
        "type": "Point",
        "coordinates": [
          -58.375632,
          -34.604564
        ]
      }
    },
    {
      "type": "Feature",
      "properties": {
        "id": 83,
        "nombre": "PETIT COLÓN",
        "direccion": "Libertad 505",
        "barrio": "San Nicolás",
        "direccion_normalizada": "LIBERTAD 505, CABA",
        "fuente": "USIG"
      },
      "geometry": {
        "type": "Point",
        "coordinates": [
          -58.38376,
          -34.602403
        ]
      }
    },
    {
      "type": "Feature",
      "properties": {
        "id": 84,
        "nombre": "PLAZA BAR",
        "direccion": "Florida 1005",
        "barrio": "Retiro",
        "direccion_normalizada": "FLORIDA 1005, CABA",
        "fuente": "USIG"
      },
      "geometry": {
        "type": "Point",
        "coordinates": [
          -58.375112,
          -34.595775
        ]
      }
    },
    {
      "type": "Feature",
      "properties": {
        "id": 85,
        "nombre": "PLAZA CAFÉ",
        "direccion": "Av. Rivadavia 4732",
        "barrio": "Caballito",
        "direccion_normalizada": "RIVADAVIA AV. 4732, CABA",
        "fuente": "USIG"
      },
      "geometry": {
        "type": "Point",
        "coordinates": [
          -58.432096,
          -34.616452
        ]
      }
    },
    {
      "type": "Feature",
      "properties": {
        "id": 86,
        "nombre": "ROMA DEL ABASTO",
        "direccion": "Anchorena 806",
        "barrio": "Balvanera",
        "direccion_normalizada": "ANCHORENA, TOMAS MANUEL DE, DR. 806, CABA",
        "fuente": "USIG"
      },
      "geometry": {
        "type": "Point",
        "coordinates": [
          -58.408726,
          -34.599397
        ]
      }
    },
    {
      "type": "Feature",
      "properties": {
        "id": 87,
        "nombre": "STYLO CAFÉ",
        "direccion": "Fernández de Enciso 3934",
        "barrio": "Villa Devoto",
        "direccion_normalizada": "FERNANDEZ DE ENCISO 3934, CABA",
        "fuente": "USIG"
      },
      "geometry": {
        "type": "Point",
        "coordinates": [
          -58.512648,
          -34.601354
        ]
      }
    },
    {
      "type": "Feature",
      "properties": {
        "id": 88,
        "nombre": "THE NEW BRIGHTON",
        "direccion": "Sarmiento 645",
        "barrio": "San Nicolás",
        "direccion_normalizada": "SARMIENTO 645, CABA",
        "fuente": "GCBA"
      },
      "geometry": {
        "type": "Point",
        "coordinates": [
          -58.375796,
          -34.604575
        ]
      }
    },
    {
      "type": "Feature",
      "properties": {
        "id": 89,
        "nombre": "VARELA VARELITA",
        "direccion": "Av. Scalabrini Ortiz 2102",
        "barrio": "Palermo",
        "direccion_normalizada": "SCALABRINI ORTIZ, RAUL AV. 2102, CABA",
        "fuente": "USIG"
      },
      "geometry": {
        "type": "Point",
        "coordinates": [
          -58.420109,
          -34.58764
        ]
      }
    },
    {
      "type": "Feature",
      "properties": {
        "id": 90,
        "nombre": "WATSON'S",
        "direccion": "Vuelta de Obligado 2072",
        "barrio": "Belgrano",
        "direccion_normalizada": "VUELTA DE OBLIGADO 2072, CABA",
        "fuente": "USIG"
      },
      "geometry": {
        "type": "Point",
        "coordinates": [
          -58.455426,
          -34.561811
        ]
      }
    }
  ]
}